{
"type": "FeatureCollection",
"name": "camerica_boundary",
"crs": { "type": "name", "properties": { "name": "urn:ogc:def:crs:OGC:1.3:CRS84" } },
"features": [
{ "type": "Feature", "properties": { }, "geometry": { "type": "Polygon", "coordinates": [ [ [ -88.617691040039062, 18.216239929199219 ], [ -88.492218017578125, 18.467769622802734 ], [ -88.4052734375, 18.489709854125977 ], [ -88.281982421875, 18.485210418701172 ], [ -88.386398315429688, 18.378879547119141 ], [ -88.378616333007812, 18.351100921630859 ], [ -88.316390991210938, 18.368890762329102 ], [ -88.358612060546875, 18.295549392700195 ], [ -88.2086181640625, 18.353050231933594 ], [ -88.183326721191406, 18.336109161376953 ], [ -88.0966796875, 18.374439239501953 ], [ -88.082229614257812, 18.192779541015625 ], [ -88.1461181640625, 17.973329544067383 ], [ -88.202507019042969, 17.890270233154297 ], [ -88.227508544921875, 17.710550308227539 ], [ -88.281402587890625, 17.636110305786133 ], [ -88.276947021484375, 17.57472038269043 ], [ -88.171951293945312, 17.509719848632812 ], [ -88.243057250976562, 17.483049392700195 ], [ -88.299453735351562, 17.204990386962891 ], [ -88.280006408691406, 17.097770690917969 ], [ -88.212226867675781, 16.982770919799805 ], [ -88.279167175292969, 16.889999389648438 ], [ -88.2489013671875, 16.815830230712891 ], [ -88.299453735351562, 16.774990081787109 ], [ -88.347503662109375, 16.60276985168457 ], [ -88.391677856445312, 16.537490844726562 ], [ -88.416397094726562, 16.437770843505859 ], [ -88.557510375976562, 16.266380310058594 ], [ -88.690841674804688, 16.245830535888672 ], [ -88.741386413574219, 16.218330383300781 ], [ -88.745826721191406, 16.146940231323242 ], [ -88.924179077148438, 15.989170074462891 ], [ -88.910957336425781, 15.892720222473145 ], [ -89.2177734375, 15.88971996307373 ], [ -89.144172668457031, 17.147499084472656 ], [ -89.143402099609375, 17.955900192260742 ], [ -89.03582763671875, 18.005550384521484 ], [ -88.848617553710938, 17.87748908996582 ], [ -88.710563659667969, 18.060550689697266 ], [ -88.681106567382812, 18.185550689697266 ], [ -88.617691040039062, 18.216239929199219 ] ] ] } },
{ "type": "Feature", "properties": { }, "geometry": { "type": "Polygon", "coordinates": [ [ [ -85.711349487304688, 11.084280014038086 ], [ -85.61444091796875, 11.21360969543457 ], [ -84.902786254882812, 10.940830230712891 ], [ -84.6744384765625, 11.078049659729004 ], [ -84.444442749023438, 10.959440231323242 ], [ -84.355560302734375, 10.993330001831055 ], [ -84.321670532226562, 10.92665958404541 ], [ -84.224716186523438, 10.878049850463867 ], [ -84.197769165039062, 10.785829544067383 ], [ -83.982223510742188, 10.756110191345215 ], [ -83.9244384765625, 10.709719657897949 ], [ -83.677223205566406, 10.78888988494873 ], [ -83.645339965820312, 10.924260139465332 ], [ -83.591133117675781, 10.72443962097168 ], [ -83.408889770507812, 10.393610000610352 ], [ -83.110572814941406, 10.016110420227051 ], [ -83.023063659667969, 10.001110076904297 ], [ -82.894180297851562, 9.796941757202148 ], [ -82.743057250976562, 9.649440765380859 ], [ -82.565193176269531, 9.569786071777344 ], [ -82.615547180175781, 9.489716529846191 ], [ -82.843338012695312, 9.608329772949219 ], [ -82.875320434570312, 9.556333541870117 ], [ -82.833213806152344, 9.498186111450195 ], [ -82.934722900390625, 9.471663475036621 ], [ -82.929466247558594, 9.062070846557617 ], [ -82.855827331542969, 9.045829772949219 ], [ -82.719161987304688, 8.940273284912109 ], [ -82.748611450195312, 8.887218475341797 ], [ -82.885009765625, 8.784721374511719 ], [ -82.915283203125, 8.745273590087891 ], [ -82.826950073242188, 8.575830459594727 ], [ -82.83056640625, 8.473884582519531 ], [ -83.03167724609375, 8.336940765380859 ], [ -82.930831909179688, 8.254718780517578 ], [ -82.89666748046875, 8.026708602905273 ], [ -82.985000610351562, 8.241941452026367 ], [ -83.139450073242188, 8.349996566772461 ], [ -83.140289306640625, 8.38499641418457 ], [ -83.095291137695312, 8.439163208007812 ], [ -83.180557250976562, 8.596664428710938 ], [ -83.130836486816406, 8.583885192871094 ], [ -83.164459228515625, 8.626108169555664 ], [ -83.322509765625, 8.668052673339844 ], [ -83.376953125, 8.736108779907227 ], [ -83.475570678710938, 8.693052291870117 ], [ -83.3013916015625, 8.536385536193848 ], [ -83.277236938476562, 8.384162902832031 ], [ -83.307510375976562, 8.371386528015137 ], [ -83.481666564941406, 8.442497253417969 ], [ -83.579452514648438, 8.446662902832031 ], [ -83.73583984375, 8.612497329711914 ], [ -83.610572814941406, 8.779720306396484 ], [ -83.650009155273438, 8.785829544067383 ], [ -83.582778930664062, 8.835275650024414 ], [ -83.603446960449219, 8.964761734008789 ], [ -83.703338623046875, 9.116662979125977 ], [ -83.879463195800781, 9.25999641418457 ], [ -84.17529296875, 9.393608093261719 ], [ -84.167236328125, 9.418607711791992 ], [ -84.249183654785156, 9.469997406005859 ], [ -84.523063659667969, 9.518886566162109 ], [ -84.6702880859375, 9.647218704223633 ], [ -84.629180908203125, 9.764442443847656 ], [ -84.736679077148438, 9.952499389648438 ], [ -84.879463195800781, 10.002499580383301 ], [ -85.069732666015625, 10.130829811096191 ], [ -85.088623046875, 10.166660308837891 ], [ -85.192497253417969, 10.168330192565918 ], [ -85.2852783203125, 10.278610229492188 ], [ -85.228897094726562, 10.122770309448242 ], [ -85.172233581542969, 10.045000076293945 ], [ -85.106948852539062, 9.978885650634766 ], [ -84.92279052734375, 9.927219390869141 ], [ -84.928337097167969, 9.831108093261719 ], [ -84.865280151367188, 9.824441909790039 ], [ -84.993057250976562, 9.701942443847656 ], [ -85.113616943359375, 9.55305290222168 ], [ -85.254730224609375, 9.747776031494141 ], [ -85.343902587890625, 9.831663131713867 ], [ -85.664459228515625, 9.899164199829102 ], [ -85.837783813476562, 10.214159965515137 ], [ -85.873611450195312, 10.34943962097168 ], [ -85.775558471679688, 10.444999694824219 ], [ -85.8114013671875, 10.507220268249512 ], [ -85.634452819824219, 10.614999771118164 ], [ -85.654167175292969, 10.638609886169434 ], [ -85.661392211914062, 10.762499809265137 ], [ -85.7005615234375, 10.805830001831055 ], [ -85.89862060546875, 10.883049964904785 ], [ -85.87750244140625, 10.943889617919922 ], [ -85.706947326660156, 10.953889846801758 ], [ -85.7327880859375, 11.036109924316406 ], [ -85.675003051757812, 11.031390190124512 ], [ -85.691566467285156, 11.07511043548584 ], [ -85.711349487304688, 11.084280014038086 ] ] ] } },
{ "type": "Feature", "properties": { }, "geometry": { "type": "Polygon", "coordinates": [ [ [ -89.3961181640625, 14.45166015625 ], [ -89.1260986328125, 14.325550079345703 ], [ -89.037216186523438, 14.334719657897949 ], [ -88.954727172851562, 14.188329696655273 ], [ -88.908622741699219, 14.207220077514648 ], [ -88.809432983398438, 14.093050003051758 ], [ -88.767227172851562, 14.13778018951416 ], [ -88.66143798828125, 14.014129638671875 ], [ -88.504730224609375, 13.981380462646484 ], [ -88.489166259765625, 13.86555004119873 ], [ -88.353057861328125, 13.868330001831055 ], [ -88.196662902832031, 13.987770080566406 ], [ -88.05999755859375, 13.963890075683594 ], [ -88.0069580078125, 13.869440078735352 ], [ -87.87860107421875, 13.90194034576416 ], [ -87.750473022460938, 13.864060401916504 ], [ -87.695266723632812, 13.818050384521484 ], [ -87.783332824707031, 13.526390075683594 ], [ -87.714447021484375, 13.470549583435059 ], [ -87.814498901367188, 13.407469749450684 ], [ -87.836669921875, 13.437219619750977 ], [ -87.8719482421875, 13.38916015625 ], [ -87.7852783203125, 13.29778003692627 ], [ -87.820281982421875, 13.245829582214355 ], [ -87.915283203125, 13.196940422058105 ], [ -87.896392822265625, 13.156660079956055 ], [ -88.196670532226562, 13.159440040588379 ], [ -88.341667175292969, 13.170000076293945 ], [ -88.384170532226562, 13.191659927368164 ], [ -88.427513122558594, 13.169159889221191 ], [ -88.446952819824219, 13.215550422668457 ], [ -88.601387023925781, 13.283049583435059 ], [ -88.7197265625, 13.268890380859375 ], [ -88.560287475585938, 13.246660232543945 ], [ -88.452507019042969, 13.165280342102051 ], [ -88.71917724609375, 13.230270385742188 ], [ -89.060012817382812, 13.368060111999512 ], [ -89.289459228515625, 13.480270385742188 ], [ -89.8094482421875, 13.52610969543457 ], [ -89.8466796875, 13.607219696044922 ], [ -90.0950927734375, 13.74547004699707 ], [ -90.105827331542969, 13.835829734802246 ], [ -89.854598999023438, 14.059459686279297 ], [ -89.737777709960938, 14.043609619140625 ], [ -89.743057250976562, 14.083889961242676 ], [ -89.6461181640625, 14.19972038269043 ], [ -89.492706298828125, 14.241250038146973 ], [ -89.57501220703125, 14.277219772338867 ], [ -89.553451538085938, 14.286250114440918 ], [ -89.590286254882812, 14.321940422058105 ], [ -89.573333740234375, 14.413330078125 ], [ -89.542221069335938, 14.420269966125488 ], [ -89.526947021484375, 14.386380195617676 ], [ -89.3961181640625, 14.45166015625 ] ] ] } },
{ "type": "Feature", "properties": { }, "geometry": { "type": "Polygon", "coordinates": [ [ [ -91.436943054199219, 17.257499694824219 ], [ -90.984161376953125, 17.256109237670898 ], [ -90.982772827148438, 17.819999694824219 ], [ -89.142440795898438, 17.818679809570312 ], [ -89.144172668457031, 17.147499084472656 ], [ -89.2177734375, 15.88971996307373 ], [ -88.980827331542969, 15.898050308227539 ], [ -88.910957336425781, 15.892720222473145 ], [ -88.8719482421875, 15.861109733581543 ], [ -88.795013427734375, 15.86221981048584 ], [ -88.634452819824219, 15.724160194396973 ], [ -88.622512817382812, 15.697779655456543 ], [ -88.556953430175781, 15.787779808044434 ], [ -88.557243347167969, 15.850830078125 ], [ -88.4969482421875, 15.836939811706543 ], [ -88.616119384765625, 15.946940422058105 ], [ -88.603347778320312, 15.96360969543457 ], [ -88.213058471679688, 15.723050117492676 ], [ -88.313888549804688, 15.671380043029785 ], [ -88.327789306640625, 15.635279655456543 ], [ -88.668327331542969, 15.350000381469727 ], [ -89.008903503417969, 15.125269889831543 ], [ -89.150833129882812, 15.073610305786133 ], [ -89.181381225585938, 15.003330230712891 ], [ -89.154167175292969, 14.981380462646484 ], [ -89.224716186523438, 14.868049621582031 ], [ -89.144447326660156, 14.64861011505127 ], [ -89.154449462890625, 14.582500457763672 ], [ -89.2994384765625, 14.515000343322754 ], [ -89.354873657226562, 14.427689552307129 ], [ -89.3961181640625, 14.45166015625 ], [ -89.526947021484375, 14.386380195617676 ], [ -89.542221069335938, 14.420269966125488 ], [ -89.573333740234375, 14.413330078125 ], [ -89.590286254882812, 14.321940422058105 ], [ -89.553451538085938, 14.286250114440918 ], [ -89.57501220703125, 14.277219772338867 ], [ -89.492706298828125, 14.241250038146973 ], [ -89.6461181640625, 14.19972038269043 ], [ -89.743057250976562, 14.083889961242676 ], [ -89.737777709960938, 14.043609619140625 ], [ -89.854598999023438, 14.059459686279297 ], [ -90.105827331542969, 13.835829734802246 ], [ -90.0950927734375, 13.74547004699707 ], [ -90.5977783203125, 13.926389694213867 ], [ -90.914459228515625, 13.920550346374512 ], [ -91.22528076171875, 13.938329696655273 ], [ -91.47528076171875, 14.023889541625977 ], [ -91.901123046875, 14.279439926147461 ], [ -92.245941162109375, 14.548080444335938 ], [ -92.187210083007812, 14.588330268859863 ], [ -92.166397094726562, 14.772769927978516 ], [ -92.186111450195312, 14.843609809875488 ], [ -92.150833129882812, 14.970270156860352 ], [ -92.065826416015625, 15.077770233154297 ], [ -92.211402893066406, 15.26222038269043 ], [ -91.729171752929688, 16.074989318847656 ], [ -90.446662902832031, 16.075000762939453 ], [ -90.445831298828125, 16.228879928588867 ], [ -90.393890380859375, 16.410820007324219 ], [ -90.597503662109375, 16.480270385742188 ], [ -90.645843505859375, 16.549720764160156 ], [ -90.678878784179688, 16.675819396972656 ], [ -90.8013916015625, 16.803609848022461 ], [ -90.941940307617188, 16.861660003662109 ], [ -90.950843811035156, 16.896379470825195 ], [ -91.039436340332031, 16.894990921020508 ], [ -91.204727172851562, 17.061100006103516 ], [ -91.2772216796875, 17.178329467773438 ], [ -91.436943054199219, 17.257499694824219 ] ] ] } },
{ "type": "Feature", "properties": { }, "geometry": { "type": "Polygon", "coordinates": [ [ [ -88.313888549804688, 15.671380043029785 ], [ -88.213058471679688, 15.723050117492676 ], [ -88.161117553710938, 15.683890342712402 ], [ -88.119743347167969, 15.6875 ], [ -87.927230834960938, 15.818050384521484 ], [ -87.954177856445312, 15.86221981048584 ], [ -87.692779541015625, 15.916939735412598 ], [ -87.470840454101562, 15.783049583435059 ], [ -87.355560302734375, 15.850279808044434 ], [ -86.9122314453125, 15.755550384521484 ], [ -86.634452819824219, 15.791390419006348 ], [ -86.353347778320312, 15.771670341491699 ], [ -86.134742736816406, 15.893050193786621 ], [ -85.988616943359375, 15.898889541625977 ], [ -85.916397094726562, 15.946390151977539 ], [ -85.903900146484375, 15.991660118103027 ], [ -86.015007019042969, 16.016660690307617 ], [ -85.926963806152344, 16.020269393920898 ], [ -85.703338623046875, 15.973050117492676 ], [ -85.670562744140625, 15.944169998168945 ], [ -85.420013427734375, 15.891389846801758 ], [ -85.119743347167969, 15.921939849853516 ], [ -85.023063659667969, 15.986109733581543 ], [ -84.946670532226562, 15.986940383911133 ], [ -84.610000610351562, 15.870550155639648 ], [ -84.628616333007812, 15.819169998168945 ], [ -84.601959228515625, 15.77610969543457 ], [ -84.415008544921875, 15.817500114440918 ], [ -84.513900756835938, 15.854720115661621 ], [ -84.243911743164062, 15.804929733276367 ], [ -83.879730224609375, 15.481940269470215 ], [ -84.0997314453125, 15.549169540405273 ], [ -84.205291748046875, 15.530550003051758 ], [ -84.179168701171875, 15.479439735412598 ], [ -84.14666748046875, 15.531660079956055 ], [ -84.089736938476562, 15.459440231323242 ], [ -84.120010375976562, 15.414440155029297 ], [ -84.077507019042969, 15.35138988494873 ], [ -83.993057250976562, 15.30165958404541 ], [ -83.932510375976562, 15.308050155639648 ], [ -83.957778930664062, 15.291110038757324 ], [ -83.92083740234375, 15.240830421447754 ], [ -83.828903198242188, 15.258609771728516 ], [ -83.8880615234375, 15.316390037536621 ], [ -84.02667236328125, 15.391110420227051 ], [ -84.002227783203125, 15.414159774780273 ], [ -83.886123657226562, 15.358889579772949 ], [ -83.764717102050781, 15.223050117492676 ], [ -83.721946716308594, 15.199999809265137 ], [ -83.623611450195312, 15.290829658508301 ], [ -83.531112670898438, 15.281669616699219 ], [ -83.541397094726562, 15.199440002441406 ], [ -83.589736938476562, 15.233610153198242 ], [ -83.624183654785156, 15.195280075073242 ], [ -83.583343505859375, 15.159999847412109 ], [ -83.482513427734375, 15.206110000610352 ], [ -83.506668090820312, 15.279720306396484 ], [ -83.7216796875, 15.366109848022461 ], [ -83.706680297851562, 15.397500038146973 ], [ -83.353897094726562, 15.221670150756836 ], [ -83.310287475585938, 15.09889030456543 ], [ -83.19500732421875, 15.018329620361328 ], [ -83.130867004394531, 14.993289947509766 ], [ -83.390838623046875, 15.024720191955566 ], [ -83.417503356933594, 14.991109848022461 ], [ -83.5069580078125, 15.01278018951416 ], [ -83.531112670898438, 14.94972038269043 ], [ -83.718887329101562, 14.868330001831055 ], [ -83.843887329101562, 14.784999847412109 ], [ -83.92138671875, 14.799440383911133 ], [ -83.932502746582031, 14.752499580383301 ], [ -84.118057250976562, 14.784159660339355 ], [ -84.10333251953125, 14.728879928588867 ], [ -84.196662902832031, 14.71638011932373 ], [ -84.237213134765625, 14.763330459594727 ], [ -84.267776489257812, 14.744720458984375 ], [ -84.275283813476562, 14.664999961853027 ], [ -84.3255615234375, 14.673609733581543 ], [ -84.44915771484375, 14.627779960632324 ], [ -84.682220458984375, 14.685549736022949 ], [ -84.818618774414062, 14.827779769897461 ], [ -85.025833129882812, 14.700550079345703 ], [ -85.032783508300781, 14.573610305786133 ], [ -85.086669921875, 14.543330192565918 ], [ -85.115280151367188, 14.566670417785645 ], [ -85.175827026367188, 14.444999694824219 ], [ -85.155838012695312, 14.340270042419434 ], [ -85.179168701171875, 14.315279960632324 ], [ -85.31500244140625, 14.281109809875488 ], [ -85.524169921875, 14.055279731750488 ], [ -85.732772827148438, 13.957779884338379 ], [ -85.736656188964844, 13.828610420227051 ], [ -85.800827026367188, 13.839159965515137 ], [ -85.8538818359375, 13.914159774780273 ], [ -85.909156799316406, 13.906940460205078 ], [ -86.022506713867188, 14.003049850463867 ], [ -86.015838623046875, 14.065830230712891 ], [ -86.088333129882812, 14.044440269470215 ], [ -86.175827026367188, 13.970829963684082 ], [ -86.31304931640625, 13.770830154418945 ], [ -86.354171752929688, 13.758049964904785 ], [ -86.530563354492188, 13.792499542236328 ], [ -86.761123657226562, 13.752779960632324 ], [ -86.732772827148438, 13.522500038146973 ], [ -86.732772827148438, 13.376660346984863 ], [ -86.696662902832031, 13.356659889221191 ], [ -86.696380615234375, 13.294719696044922 ], [ -86.743057250976562, 13.260829925537109 ], [ -86.827789306640625, 13.296669960021973 ], [ -86.90972900390625, 13.241109848022461 ], [ -86.952499389648438, 13.041669845581055 ], [ -87.063606262207031, 13.000280380249023 ], [ -87.300140380859375, 12.987409591674805 ], [ -87.268890380859375, 13.02554988861084 ], [ -87.3255615234375, 13.033889770507812 ], [ -87.357223510742188, 13.071940422058105 ], [ -87.303619384765625, 13.096659660339355 ], [ -87.419166564941406, 13.107780456542969 ], [ -87.476959228515625, 13.258049964904785 ], [ -87.5130615234375, 13.27361011505127 ], [ -87.379997253417969, 13.372770309448242 ], [ -87.398353576660156, 13.412500381469727 ], [ -87.470840454101562, 13.40054988861084 ], [ -87.529167175292969, 13.347220420837402 ], [ -87.622787475585938, 13.407779693603516 ], [ -87.616386413574219, 13.451669692993164 ], [ -87.641952514648438, 13.460550308227539 ], [ -87.677230834960938, 13.366390228271484 ], [ -87.740013122558594, 13.355270385742188 ], [ -87.814498901367188, 13.407469749450684 ], [ -87.714447021484375, 13.470549583435059 ], [ -87.783332824707031, 13.526390075683594 ], [ -87.695266723632812, 13.818050384521484 ], [ -87.750473022460938, 13.864060401916504 ], [ -87.87860107421875, 13.90194034576416 ], [ -88.0069580078125, 13.869440078735352 ], [ -88.05999755859375, 13.963890075683594 ], [ -88.196662902832031, 13.987770080566406 ], [ -88.353057861328125, 13.868330001831055 ], [ -88.489166259765625, 13.86555004119873 ], [ -88.504730224609375, 13.981380462646484 ], [ -88.66143798828125, 14.014129638671875 ], [ -88.767227172851562, 14.13778018951416 ], [ -88.809432983398438, 14.093050003051758 ], [ -88.908622741699219, 14.207220077514648 ], [ -88.954727172851562, 14.188329696655273 ], [ -89.037216186523438, 14.334719657897949 ], [ -89.1260986328125, 14.325550079345703 ], [ -89.354873657226562, 14.427689552307129 ], [ -89.2994384765625, 14.515000343322754 ], [ -89.154449462890625, 14.582500457763672 ], [ -89.144447326660156, 14.64861011505127 ], [ -89.224716186523438, 14.868049621582031 ], [ -89.154167175292969, 14.981380462646484 ], [ -89.181381225585938, 15.003330230712891 ], [ -89.150833129882812, 15.073610305786133 ], [ -89.008903503417969, 15.125269889831543 ], [ -88.668327331542969, 15.350000381469727 ], [ -88.327789306640625, 15.635279655456543 ], [ -88.313888549804688, 15.671380043029785 ] ] ] } },
{ "type": "Feature", "properties": { }, "geometry": { "type": "MultiPolygon", "coordinates": [ [ [ [ -113.161102294921875, 29.026660919189453 ], [ -113.410598754882812, 29.219720840454102 ], [ -113.598098754882812, 29.434160232543945 ], [ -113.588600158691406, 29.583610534667969 ], [ -113.409202575683594, 29.486110687255859 ], [ -113.364997863769531, 29.403329849243164 ], [ -113.384201049804688, 29.324710845947266 ], [ -113.184196472167969, 29.294160842895508 ], [ -113.190597534179688, 29.153610229492188 ], [ -113.124496459960938, 29.058889389038086 ], [ -113.161102294921875, 29.026660919189453 ] ] ], [ [ [ -86.99334716796875, 20.255550384521484 ], [ -87.021392822265625, 20.325830459594727 ], [ -87.011398315429688, 20.418880462646484 ], [ -86.936111450195312, 20.543329238891602 ], [ -86.745010375976562, 20.561380386352539 ], [ -86.943336486816406, 20.291109085083008 ], [ -86.99334716796875, 20.255550384521484 ] ] ], [ [ [ -115.185600280761719, 28.026390075683594 ], [ -115.348297119140625, 28.11638069152832 ], [ -115.249702453613281, 28.228330612182617 ], [ -115.278602600097656, 28.328329086303711 ], [ -115.240798950195312, 28.370550155639648 ], [ -115.210899353027344, 28.355550765991211 ], [ -115.143096923828125, 28.154720306396484 ], [ -115.185600280761719, 28.026390075683594 ] ] ], [ [ [ -112.356903076171875, 28.762779235839844 ], [ -112.563102722167969, 28.883880615234375 ], [ -112.49859619140625, 28.937219619750977 ], [ -112.4375, 29.198329925537109 ], [ -112.268600463867188, 29.253049850463867 ], [ -112.202796936035156, 29.032220840454102 ], [ -112.248100280761719, 28.781660079956055 ], [ -112.356903076171875, 28.762779235839844 ] ] ], [ [ [ -117.12359619140625, 32.536788940429688 ], [ -114.718597412109375, 32.718318939208984 ], [ -114.809402465820312, 32.503879547119141 ], [ -112.870002746582031, 31.914159774780273 ], [ -111.045799255371094, 31.333049774169922 ], [ -108.208297729492188, 31.333049774169922 ], [ -108.208602905273438, 31.783330917358398 ], [ -106.520301818847656, 31.780550003051758 ], [ -106.335800170898438, 31.68943977355957 ], [ -106.214401245117188, 31.475269317626953 ], [ -105.87139892578125, 31.291940689086914 ], [ -105.49749755859375, 30.954160690307617 ], [ -105.266700744628906, 30.799720764160156 ], [ -105.125, 30.749719619750977 ], [ -104.867202758789062, 30.502220153808594 ], [ -104.8114013671875, 30.349720001220703 ], [ -104.682197570800781, 30.187490463256836 ], [ -104.6802978515625, 29.945550918579102 ], [ -104.442497253417969, 29.588050842285156 ], [ -103.999198913574219, 29.313610076904297 ], [ -103.761100769042969, 29.224720001220703 ], [ -103.63580322265625, 29.158330917358398 ], [ -103.543296813964844, 29.149160385131836 ], [ -103.401100158691406, 29.036380767822266 ], [ -103.154197692871094, 28.981380462646484 ], [ -103.110496520996094, 29.003330230712891 ], [ -103.077499389648438, 29.091100692749023 ], [ -103.035301208496094, 29.098600387573242 ], [ -102.904403686523438, 29.216100692749023 ], [ -102.862503051757812, 29.224159240722656 ], [ -102.886100769042969, 29.340549468994141 ], [ -102.819503784179688, 29.396659851074219 ], [ -102.761100769042969, 29.592769622802734 ], [ -102.670303344726562, 29.742769241333008 ], [ -102.385002136230469, 29.769710540771484 ], [ -102.314697265625, 29.883329391479492 ], [ -101.833602905273438, 29.795829772949219 ], [ -101.575599670410156, 29.773330688476562 ], [ -101.541702270507812, 29.814720153808594 ], [ -101.531402587890625, 29.76416015625 ], [ -101.404998779296875, 29.772769927978516 ], [ -101.355796813964844, 29.660549163818359 ], [ -101.306098937988281, 29.631109237670898 ], [ -101.301902770996094, 29.576379776000977 ], [ -101.235000610351562, 29.616100311279297 ], [ -101.141998291015625, 29.491939544677734 ], [ -101.034202575683594, 29.453039169311523 ], [ -101.018096923828125, 29.388599395751953 ], [ -100.775299072265625, 29.233049392700195 ], [ -100.766098022460938, 29.174440383911133 ], [ -100.668296813964844, 29.113330841064453 ], [ -100.565597534179688, 28.839710235595703 ], [ -100.495796203613281, 28.740270614624023 ], [ -100.44000244140625, 28.616939544677734 ], [ -100.327499389648438, 28.509159088134766 ], [ -100.331703186035156, 28.405550003051758 ], [ -100.196701049804688, 28.208890914916992 ], [ -100.013099670410156, 28.068609237670898 ], [ -99.994720458984375, 27.999439239501953 ], [ -99.881942749023438, 27.906379699707031 ], [ -99.835563659667969, 27.775270462036133 ], [ -99.745002746582031, 27.721380233764648 ], [ -99.707229614257812, 27.661659240722656 ], [ -99.544158935546875, 27.610820770263672 ], [ -99.503067016601562, 27.565830230712891 ], [ -99.48388671875, 27.282779693603516 ], [ -99.440826416015625, 27.253610610961914 ], [ -99.4586181640625, 27.046939849853516 ], [ -99.380828857421875, 27.003879547119141 ], [ -99.349166870117188, 26.881660461425781 ], [ -99.2711181640625, 26.86138916015625 ], [ -99.172500610351562, 26.563610076904297 ], [ -99.0897216796875, 26.495269775390625 ], [ -99.106658935546875, 26.422489166259766 ], [ -99.005569458007812, 26.386659622192383 ], [ -98.932220458984375, 26.392770767211914 ], [ -98.523902893066406, 26.23944091796875 ], [ -98.300277709960938, 26.106380462646484 ], [ -98.147506713867188, 26.059160232543945 ], [ -98.083328247070312, 26.069719314575195 ], [ -98.066673278808594, 26.038330078125 ], [ -97.788597106933594, 26.06443977355957 ], [ -97.713333129882812, 26.027500152587891 ], [ -97.619720458984375, 26.007770538330078 ], [ -97.479721069335938, 25.885829925537109 ], [ -97.36749267578125, 25.839439392089844 ], [ -97.343887329101562, 25.858610153198242 ], [ -97.351936340332031, 25.912490844726562 ], [ -97.1368408203125, 25.964710235595703 ], [ -97.196670532226562, 25.65138053894043 ], [ -97.515838623046875, 25.037220001220703 ], [ -97.6507568359375, 24.42848014831543 ], [ -97.7247314453125, 23.81443977355957 ], [ -97.73583984375, 23.781940460205078 ], [ -97.818069458007812, 23.783880233764648 ], [ -97.756668090820312, 23.729160308837891 ], [ -97.726387023925781, 23.766660690307617 ], [ -97.75750732421875, 23.155269622802734 ], [ -97.745010375976562, 22.917499542236328 ], [ -97.767227172851562, 22.902490615844727 ], [ -97.890289306640625, 22.606660842895508 ], [ -97.865837097167969, 22.581110000610352 ], [ -97.842216491699219, 22.667499542236328 ], [ -97.826683044433594, 22.656940460205078 ], [ -97.817779541015625, 22.403890609741211 ], [ -97.710563659667969, 21.999160766601562 ], [ -97.588058471679688, 21.813329696655273 ], [ -97.334732055664062, 21.594440460205078 ], [ -97.312789916992188, 21.54888916015625 ], [ -97.408889770507812, 21.274160385131836 ], [ -97.476959228515625, 21.434160232543945 ], [ -97.371673583984375, 21.533599853515625 ], [ -97.620292663574219, 21.789159774780273 ], [ -97.744743347167969, 22.017219543457031 ], [ -97.593902587890625, 21.530000686645508 ], [ -97.560012817382812, 21.481109619140625 ], [ -97.486953735351562, 21.483600616455078 ], [ -97.500556945800781, 21.420829772949219 ], [ -97.297500610351562, 20.971380233764648 ], [ -97.178886413574219, 20.754159927368164 ], [ -97.192779541015625, 20.72776985168457 ], [ -97.0997314453125, 20.586940765380859 ], [ -96.758346557617188, 20.240549087524414 ], [ -96.44805908203125, 19.861660003662109 ], [ -96.279716491699219, 19.318880081176758 ], [ -96.102783203125, 19.173049926757812 ], [ -96.084457397460938, 19.101659774780273 ], [ -96.039459228515625, 19.060270309448242 ], [ -95.9747314453125, 19.061660766601562 ], [ -95.908340454101562, 18.879709243774414 ], [ -95.777511596679688, 18.779439926147461 ], [ -95.932510375976562, 18.864719390869141 ], [ -95.94500732421875, 18.838050842285156 ], [ -95.821670532226562, 18.761100769042969 ], [ -95.876106262207031, 18.754159927368164 ], [ -95.861953735351562, 18.722770690917969 ], [ -95.622787475585938, 18.694160461425781 ], [ -95.589736938476562, 18.663600921630859 ], [ -95.5694580078125, 18.677219390869141 ], [ -95.62139892578125, 18.713329315185547 ], [ -95.7327880859375, 18.75054931640625 ], [ -95.731948852539062, 18.795549392700195 ], [ -95.656402587890625, 18.739719390869141 ], [ -95.4263916015625, 18.703880310058594 ], [ -95.212783813476562, 18.711109161376953 ], [ -95.0513916015625, 18.61305046081543 ], [ -95.029167175292969, 18.56304931640625 ], [ -94.807792663574219, 18.52471923828125 ], [ -94.525009155273438, 18.156110763549805 ], [ -94.3880615234375, 18.154989242553711 ], [ -93.875839233398438, 18.283599853515625 ], [ -93.886672973632812, 18.254159927368164 ], [ -93.760009765625, 18.277490615844727 ], [ -93.765289306640625, 18.317209243774414 ], [ -93.595840454101562, 18.342220306396484 ], [ -93.570281982421875, 18.407770156860352 ], [ -93.450286865234375, 18.440549850463867 ], [ -93.153633117675781, 18.439159393310547 ], [ -93.172500610351562, 18.372770309448242 ], [ -93.092506408691406, 18.373329162597656 ], [ -93.087783813476562, 18.403610229492188 ], [ -93.142227172851562, 18.421379089355469 ], [ -93.11279296875, 18.441659927368164 ], [ -92.960853576660156, 18.43804931640625 ], [ -92.82305908203125, 18.496669769287109 ], [ -92.718338012695312, 18.589439392089844 ], [ -92.682510375976562, 18.528610229492188 ], [ -92.692497253417969, 18.610549926757812 ], [ -92.3255615234375, 18.685270309448242 ], [ -91.981399536132812, 18.728330612182617 ], [ -91.858612060546875, 18.623329162597656 ], [ -91.8739013671875, 18.583879470825195 ], [ -92.001678466796875, 18.60028076171875 ], [ -92.05084228515625, 18.544719696044922 ], [ -91.956680297851562, 18.543329238891602 ], [ -91.909446716308594, 18.57526969909668 ], [ -91.8255615234375, 18.495830535888672 ], [ -91.857513427734375, 18.430549621582031 ], [ -91.81500244140625, 18.383050918579102 ], [ -91.791122436523438, 18.388879776000977 ], [ -91.806396484375, 18.481670379638672 ], [ -91.4989013671875, 18.435270309448242 ], [ -91.4727783203125, 18.459440231323242 ], [ -91.504997253417969, 18.484720230102539 ], [ -91.466400146484375, 18.527219772338867 ], [ -91.293327331542969, 18.62554931640625 ], [ -91.256393432617188, 18.720830917358398 ], [ -91.303070068359375, 18.779439926147461 ], [ -91.4122314453125, 18.807500839233398 ], [ -91.371116638183594, 18.871940612792969 ], [ -91.451400756835938, 18.806390762329102 ], [ -91.511672973632812, 18.80388069152832 ], [ -91.4122314453125, 18.907770156860352 ], [ -90.997512817382812, 19.118610382080078 ], [ -90.728897094726562, 19.373600006103516 ], [ -90.686683654785156, 19.743890762329102 ], [ -90.471389770507812, 19.949440002441406 ], [ -90.466133117675781, 20.016109466552734 ], [ -90.49945068359375, 20.177219390869141 ], [ -90.477508544921875, 20.453880310058594 ], [ -90.491119384765625, 20.520830154418945 ], [ -90.4586181640625, 20.72776985168457 ], [ -90.383903503417969, 20.816669464111328 ], [ -90.440567016601562, 20.783880233764648 ], [ -90.349166870117188, 21.009990692138672 ], [ -90.106399536132812, 21.160270690917969 ], [ -89.563606262207031, 21.308330535888672 ], [ -88.957496643066406, 21.392490386962891 ], [ -88.718902587890625, 21.443889617919922 ], [ -88.480560302734375, 21.562219619750977 ], [ -88.0352783203125, 21.600830078125 ], [ -87.713058471679688, 21.538330078125 ], [ -87.7197265625, 21.520830154418945 ], [ -87.865570068359375, 21.551389694213867 ], [ -87.7489013671875, 21.503879547119141 ], [ -87.507781982421875, 21.495550155639648 ], [ -87.492233276367188, 21.465549468994141 ], [ -87.168060302734375, 21.471660614013672 ], [ -87.138633728027344, 21.492490768432617 ], [ -87.129180908203125, 21.554719924926758 ], [ -87.1702880859375, 21.567220687866211 ], [ -87.402236938476562, 21.505830764770508 ], [ -87.36029052734375, 21.579719543457031 ], [ -87.275558471679688, 21.56110954284668 ], [ -87.113616943359375, 21.623329162597656 ], [ -87.003341674804688, 21.578329086303711 ], [ -86.908340454101562, 21.429439544677734 ], [ -86.837783813476562, 21.435550689697266 ], [ -86.810562133789062, 21.374719619750977 ], [ -86.814453125, 21.18889045715332 ], [ -86.773063659667969, 21.151390075683594 ], [ -86.783340454101562, 21.032489776611328 ], [ -86.838623046875, 20.964160919189453 ], [ -86.95806884765625, 20.746940612792969 ], [ -87.306671142578125, 20.399440765380859 ], [ -87.453338623046875, 20.166940689086914 ], [ -87.470840454101562, 19.995269775390625 ], [ -87.433326721191406, 19.895549774169922 ], [ -87.472503662109375, 19.77638053894043 ], [ -87.480293273925781, 19.831659317016602 ], [ -87.443336486816406, 19.896659851074219 ], [ -87.482513427734375, 19.959440231323242 ], [ -87.493621826171875, 19.832220077514648 ], [ -87.585281372070312, 19.796659469604492 ], [ -87.654167175292969, 19.674999237060547 ], [ -87.731666564941406, 19.681390762329102 ], [ -87.738067626953125, 19.612220764160156 ], [ -87.6702880859375, 19.505279541015625 ], [ -87.470291137695312, 19.559989929199219 ], [ -87.440567016601562, 19.633050918579102 ], [ -87.411956787109375, 19.578880310058594 ], [ -87.438606262207031, 19.47776985168457 ], [ -87.62640380859375, 19.399990081787109 ], [ -87.68695068359375, 19.258609771728516 ], [ -87.668899536132812, 19.22443962097168 ], [ -87.640289306640625, 19.210830688476562 ], [ -87.511672973632812, 19.325279235839844 ], [ -87.462226867675781, 19.317209243774414 ], [ -87.551681518554688, 19.159999847412109 ], [ -87.656402587890625, 18.754720687866211 ], [ -87.727226257324219, 18.672489166259766 ], [ -87.793327331542969, 18.361110687255859 ], [ -87.8719482421875, 18.22389030456543 ], [ -87.891677856445312, 18.369440078735352 ], [ -88.081123352050781, 18.517219543457031 ], [ -88.003616333007812, 18.737770080566406 ], [ -88.037513732910156, 18.869440078735352 ], [ -88.195556640625, 18.726100921630859 ], [ -88.1944580078125, 18.670549392700195 ], [ -88.150848388671875, 18.686660766601562 ], [ -88.281982421875, 18.485210418701172 ], [ -88.4052734375, 18.489709854125977 ], [ -88.492218017578125, 18.467769622802734 ], [ -88.617691040039062, 18.216239929199219 ], [ -88.681106567382812, 18.185550689697266 ], [ -88.710563659667969, 18.060550689697266 ], [ -88.848617553710938, 17.87748908996582 ], [ -89.03582763671875, 18.005550384521484 ], [ -89.143402099609375, 17.955900192260742 ], [ -89.142440795898438, 17.818679809570312 ], [ -90.982772827148438, 17.819999694824219 ], [ -90.984161376953125, 17.256109237670898 ], [ -91.436943054199219, 17.257499694824219 ], [ -91.2772216796875, 17.178329467773438 ], [ -91.204727172851562, 17.061100006103516 ], [ -91.039436340332031, 16.894990921020508 ], [ -90.950843811035156, 16.896379470825195 ], [ -90.941940307617188, 16.861660003662109 ], [ -90.8013916015625, 16.803609848022461 ], [ -90.678878784179688, 16.675819396972656 ], [ -90.645843505859375, 16.549720764160156 ], [ -90.597503662109375, 16.480270385742188 ], [ -90.393890380859375, 16.410820007324219 ], [ -90.445831298828125, 16.228879928588867 ], [ -90.446662902832031, 16.075000762939453 ], [ -91.729171752929688, 16.074989318847656 ], [ -92.211402893066406, 15.26222038269043 ], [ -92.065826416015625, 15.077770233154297 ], [ -92.150833129882812, 14.970270156860352 ], [ -92.186111450195312, 14.843609809875488 ], [ -92.166397094726562, 14.772769927978516 ], [ -92.187210083007812, 14.588330268859863 ], [ -92.245941162109375, 14.548080444335938 ], [ -92.787017822265625, 15.09259033203125 ], [ -92.826400756835938, 15.140270233154297 ], [ -92.831123352050781, 15.173890113830566 ], [ -93.523902893066406, 15.74055004119873 ], [ -93.938339233398438, 16.010549545288086 ], [ -93.855827331542969, 16.021659851074219 ], [ -93.906951904296875, 16.096099853515625 ], [ -94.028343200683594, 16.111940383911133 ], [ -94.136672973632812, 16.226940155029297 ], [ -94.212226867675781, 16.197769165039062 ], [ -94.406402587890625, 16.294439315795898 ], [ -94.438606262207031, 16.240549087524414 ], [ -94.327217102050781, 16.150270462036133 ], [ -94.308326721191406, 16.160549163818359 ], [ -94.326133728027344, 16.181659698486328 ], [ -94.216949462890625, 16.159999847412109 ], [ -93.995010375976562, 16.018329620361328 ], [ -94.265556335449219, 16.123329162597656 ], [ -94.53021240234375, 16.18794059753418 ], [ -94.714447021484375, 16.192209243774414 ], [ -94.707778930664062, 16.223880767822266 ], [ -94.6319580078125, 16.246110916137695 ], [ -94.582229614257812, 16.295549392700195 ], [ -94.595840454101562, 16.335830688476562 ], [ -94.661392211914062, 16.362220764160156 ], [ -94.783889770507812, 16.258050918579102 ], [ -94.808616638183594, 16.286380767822266 ], [ -94.7711181640625, 16.327220916748047 ], [ -94.833892822265625, 16.418329238891602 ], [ -94.906112670898438, 16.411659240722656 ], [ -95.063339233398438, 16.285829544067383 ], [ -95.0625, 16.267219543457031 ], [ -94.870826721191406, 16.25193977355957 ], [ -94.761672973632812, 16.212490081787109 ], [ -94.791946411132812, 16.199159622192383 ], [ -94.924453735351562, 16.214160919189453 ], [ -95.251106262207031, 16.133050918579102 ], [ -95.385009765625, 15.996660232543945 ], [ -95.876106262207031, 15.842499732971191 ], [ -96.182243347167969, 15.691659927368164 ], [ -96.5755615234375, 15.654999732971191 ], [ -97.140556335449219, 15.898889541625977 ], [ -97.767227172851562, 15.963330268859863 ], [ -97.87139892578125, 16.021379470825195 ], [ -97.890838623046875, 16.056659698486328 ], [ -98.151123046875, 16.214439392089844 ], [ -98.531402587890625, 16.304990768432617 ], [ -98.824172973632812, 16.551660537719727 ], [ -98.851669311523438, 16.523330688476562 ], [ -99.4102783203125, 16.673610687255859 ], [ -99.680007934570312, 16.705549240112305 ], [ -99.845840454101562, 16.784439086914062 ], [ -99.860000610351562, 16.859159469604492 ], [ -99.900283813476562, 16.825550079345703 ], [ -99.93890380859375, 16.882219314575195 ], [ -101.048599243164062, 17.266939163208008 ], [ -101.06610107421875, 17.319719314575195 ], [ -101.261398315429688, 17.456939697265625 ], [ -101.418098449707031, 17.518600463867188 ], [ -101.497802734375, 17.621940612792969 ], [ -101.6239013671875, 17.66193962097168 ], [ -101.79949951171875, 17.886940002441406 ], [ -101.950302124023438, 17.977489471435547 ], [ -102.029197692871094, 17.991939544677734 ], [ -102.150299072265625, 17.917499542236328 ], [ -102.725898742675781, 18.061100006103516 ], [ -103.450302124023438, 18.313610076904297 ], [ -103.656402587890625, 18.560270309448242 ], [ -103.704696655273438, 18.585269927978516 ], [ -103.684196472167969, 18.611379623413086 ], [ -103.835296630859375, 18.763879776000977 ], [ -103.999702453613281, 18.893600463867188 ], [ -104.30560302734375, 19.003049850463867 ], [ -104.331398010253906, 19.026939392089844 ], [ -104.314697265625, 19.080270767211914 ], [ -104.374496459960938, 19.109439849853516 ], [ -104.44830322265625, 19.090829849243164 ], [ -104.735000610351562, 19.229999542236328 ], [ -104.803901672363281, 19.219160079956055 ], [ -104.7969970703125, 19.288600921630859 ], [ -104.885299682617188, 19.280269622802734 ], [ -105.022499084472656, 19.371940612792969 ], [ -105.099998474121094, 19.560550689697266 ], [ -105.299697875976562, 19.719720840454102 ], [ -105.518600463867188, 20.026100158691406 ], [ -105.678298950195312, 20.418050765991211 ], [ -105.560302734375, 20.489990234375 ], [ -105.351997375488281, 20.513050079345703 ], [ -105.250297546386719, 20.565549850463867 ], [ -105.233596801757812, 20.628879547119141 ], [ -105.312202453613281, 20.757219314575195 ], [ -105.346702575683594, 20.773330688476562 ], [ -105.417198181152344, 20.753879547119141 ], [ -105.540603637695312, 20.781660079956055 ], [ -105.506698608398438, 20.818050384521484 ], [ -105.471397399902344, 20.816659927368164 ], [ -105.31109619140625, 21.024440765380859 ], [ -105.257797241210938, 21.040550231933594 ], [ -105.224502563476562, 21.114160537719727 ], [ -105.238601684570312, 21.347770690917969 ], [ -105.180801391601562, 21.45026969909668 ], [ -105.213096618652344, 21.513879776000977 ], [ -105.423103332519531, 21.599159240722656 ], [ -105.655799865722656, 22.030830383300781 ], [ -105.647796630859375, 22.331380844116211 ], [ -105.791702270507812, 22.622770309448242 ], [ -105.983901977539062, 22.850549697875977 ], [ -106.028900146484375, 22.827220916748047 ], [ -106.374198913574219, 23.181390762329102 ], [ -106.424697875976562, 23.180549621582031 ], [ -106.493301391601562, 23.354160308837891 ], [ -106.830001831054688, 23.715269088745117 ], [ -106.955001831054688, 23.898330688476562 ], [ -107.276100158691406, 24.147499084472656 ], [ -107.767799377441406, 24.486379623413086 ], [ -107.502197265625, 24.369159698486328 ], [ -107.475303649902344, 24.392770767211914 ], [ -107.522201538085938, 24.516109466552734 ], [ -107.579696655273438, 24.523609161376953 ], [ -107.55059814453125, 24.502769470214844 ], [ -107.618301391601562, 24.455280303955078 ], [ -107.927803039550781, 24.634719848632812 ], [ -107.862197875976562, 24.559989929199219 ], [ -107.916397094726562, 24.582780838012695 ], [ -107.999198913574219, 24.652490615844727 ], [ -108.05999755859375, 24.778049468994141 ], [ -107.976997375488281, 24.76416015625 ], [ -107.987503051757812, 24.956939697265625 ], [ -108.039497375488281, 24.999719619750977 ], [ -108.047203063964844, 24.823329925537109 ], [ -108.106399536132812, 24.821659088134766 ], [ -108.326103210449219, 25.098609924316406 ], [ -108.270797729492188, 25.095830917358398 ], [ -108.12750244140625, 24.972499847412109 ], [ -108.149398803710938, 25.049160003662109 ], [ -108.009201049804688, 24.999719619750977 ], [ -108.000801086425781, 25.016380310058594 ], [ -108.091400146484375, 25.105829238891602 ], [ -108.323097229003906, 25.183879852294922 ], [ -108.318099975585938, 25.246940612792969 ], [ -108.36309814453125, 25.263050079345703 ], [ -108.388900756835938, 25.142770767211914 ], [ -108.416900634765625, 25.246379852294922 ], [ -108.61669921875, 25.339990615844727 ], [ -108.728103637695312, 25.355270385742188 ], [ -108.663398742675781, 25.364990234375 ], [ -108.642196655273438, 25.383609771728516 ], [ -108.672203063964844, 25.398609161376953 ], [ -108.765296936035156, 25.37693977355957 ], [ -108.743301391601562, 25.433879852294922 ], [ -108.831901550292969, 25.559999465942383 ], [ -108.898902893066406, 25.561380386352539 ], [ -108.876701354980469, 25.513330459594727 ], [ -108.919998168945312, 25.456110000610352 ], [ -108.93890380859375, 25.497770309448242 ], [ -109.012199401855469, 25.495550155639648 ], [ -109.011100769042969, 25.46027946472168 ], [ -109.108901977539062, 25.52610969543457 ], [ -109.068603515625, 25.574710845947266 ], [ -108.996696472167969, 25.569440841674805 ], [ -108.910598754882812, 25.629440307617188 ], [ -108.900802612304688, 25.694999694824219 ], [ -109.105003356933594, 25.578880310058594 ], [ -109.13690185546875, 25.57805061340332 ], [ -109.224700927734375, 25.670829772949219 ], [ -109.24859619140625, 25.657220840454102 ], [ -109.149398803710938, 25.574159622192383 ], [ -109.174697875976562, 25.573610305786133 ], [ -109.233596801757812, 25.623889923095703 ], [ -109.397499084472656, 25.634990692138672 ], [ -109.353103637695312, 25.667499542236328 ], [ -109.300300598144531, 25.658880233764648 ], [ -109.289703369140625, 25.719989776611328 ], [ -109.366096496582031, 25.763050079345703 ], [ -109.394699096679688, 25.748329162597656 ], [ -109.444198608398438, 25.802219390869141 ], [ -109.413902282714844, 25.891660690307617 ], [ -109.44329833984375, 25.939720153808594 ], [ -109.404403686523438, 26.065280914306641 ], [ -109.302200317382812, 26.205549240112305 ], [ -109.285301208496094, 26.153610229492188 ], [ -109.224197387695312, 26.274999618530273 ], [ -109.231697082519531, 26.319440841674805 ], [ -109.205299377441406, 26.344160079956055 ], [ -109.165298461914062, 26.32526969909668 ], [ -109.149200439453125, 26.242490768432617 ], [ -109.101097106933594, 26.209159851074219 ], [ -109.081901550292969, 26.281669616699219 ], [ -109.131401062011719, 26.307220458984375 ], [ -109.17919921875, 26.37554931640625 ], [ -109.245597839355469, 26.329990386962891 ], [ -109.241096496582031, 26.44805908203125 ], [ -109.279701232910156, 26.54026985168457 ], [ -109.513298034667969, 26.762210845947266 ], [ -109.562202453613281, 26.743610382080078 ], [ -109.49530029296875, 26.690269470214844 ], [ -109.68499755859375, 26.673049926757812 ], [ -109.80670166015625, 26.736379623413086 ], [ -109.946998596191406, 26.98638916015625 ], [ -109.882003784179688, 26.935550689697266 ], [ -109.941703796386719, 27.083049774169922 ], [ -110.014198303222656, 27.11638069152832 ], [ -110.055801391601562, 27.095279693603516 ], [ -110.314697265625, 27.155279159545898 ], [ -110.414703369140625, 27.26416015625 ], [ -110.509696960449219, 27.299160003662109 ], [ -110.447502136230469, 27.305549621582031 ], [ -110.473297119140625, 27.371379852294922 ], [ -110.553901672363281, 27.367490768432617 ], [ -110.587799072265625, 27.557769775390625 ], [ -110.63330078125, 27.632219314575195 ], [ -110.546401977539062, 27.732500076293945 ], [ -110.607498168945312, 27.791940689086914 ], [ -110.583602905273438, 27.838050842285156 ], [ -110.519401550292969, 27.86138916015625 ], [ -110.847801208496094, 27.905279159545898 ], [ -110.822196960449219, 27.964439392089844 ], [ -110.855796813964844, 27.984720230102539 ], [ -110.870002746582031, 27.848329544067383 ], [ -110.906097412109375, 27.853330612182617 ], [ -110.986099243164062, 27.961389541625977 ], [ -111.12359619140625, 27.959159851074219 ], [ -111.458900451660156, 28.332490921020508 ], [ -111.435798645019531, 28.379159927368164 ], [ -111.669700622558594, 28.452770233154297 ], [ -111.947196960449219, 28.761659622192383 ], [ -111.911697387695312, 28.784999847412109 ], [ -111.870002746582031, 28.746110916137695 ], [ -111.854698181152344, 28.794719696044922 ], [ -111.968902587890625, 28.833049774169922 ], [ -112.161697387695312, 29.011379241943359 ], [ -112.201400756835938, 29.283050537109375 ], [ -112.235801696777344, 29.327499389648438 ], [ -112.326698303222656, 29.328609466552734 ], [ -112.332496643066406, 29.293050765991211 ], [ -112.391700744628906, 29.329719543457031 ], [ -112.410301208496094, 29.380279541015625 ], [ -112.375801086425781, 29.469160079956055 ], [ -112.42559814453125, 29.554439544677734 ], [ -112.62750244140625, 29.804719924926758 ], [ -112.696403503417969, 29.919719696044922 ], [ -112.73919677734375, 29.913330078125 ], [ -112.752799987792969, 30.198329925537109 ], [ -112.81829833984375, 30.276939392089844 ], [ -112.860801696777344, 30.278610229492188 ], [ -112.842796325683594, 30.342769622802734 ], [ -112.871696472167969, 30.431659698486328 ], [ -113.072799682617188, 30.679439544677734 ], [ -113.117202758789062, 30.81443977355957 ], [ -113.081398010253906, 30.916109085083008 ], [ -113.12030029296875, 31.068599700927734 ], [ -113.071998596191406, 30.996660232543945 ], [ -113.037200927734375, 31.145269393920898 ], [ -113.086700439453125, 31.22722053527832 ], [ -113.11920166015625, 31.193609237670898 ], [ -113.63580322265625, 31.34943962097168 ], [ -113.624702453613281, 31.461940765380859 ], [ -113.649696350097656, 31.507499694824219 ], [ -113.978103637695312, 31.633609771728516 ], [ -113.945602416992188, 31.568050384521484 ], [ -114.015800476074219, 31.500270843505859 ], [ -114.13079833984375, 31.495269775390625 ], [ -114.307197570800781, 31.572219848632812 ], [ -114.617202758789062, 31.765829086303711 ], [ -114.798301696777344, 31.817220687866211 ], [ -115.024398803710938, 31.967220306396484 ], [ -115.020599365234375, 31.916109085083008 ], [ -114.923599243164062, 31.873880386352539 ], [ -114.8739013671875, 31.805549621582031 ], [ -114.823898315429688, 31.796670913696289 ], [ -114.779502868652344, 31.643600463867188 ], [ -114.843902587890625, 31.554719924926758 ], [ -114.880599975585938, 31.168329238891602 ], [ -114.86669921875, 31.106660842895508 ], [ -114.818099975585938, 31.059989929199219 ], [ -114.832801818847656, 31.000270843505859 ], [ -114.713600158691406, 30.938329696655273 ], [ -114.692497253417969, 30.645549774169922 ], [ -114.630599975585938, 30.42888069152832 ], [ -114.659698486328125, 30.198610305786133 ], [ -114.458900451660156, 29.925830841064453 ], [ -114.413398742675781, 29.919160842895508 ], [ -114.379997253417969, 29.802219390869141 ], [ -114.304496765136719, 29.759159088134766 ], [ -114.227798461914062, 29.767490386962891 ], [ -113.835296630859375, 29.448610305786133 ], [ -113.662803649902344, 29.278610229492188 ], [ -113.593101501464844, 29.146379470825195 ], [ -113.548301696777344, 29.110269546508789 ], [ -113.544998168945312, 28.950830459594727 ], [ -113.50469970703125, 28.891380310058594 ], [ -113.453102111816406, 28.892490386962891 ], [ -113.463600158691406, 28.939159393310547 ], [ -113.412498474121094, 28.964990615844727 ], [ -113.340599060058594, 28.87554931640625 ], [ -113.344703674316406, 28.801109313964844 ], [ -113.224700927734375, 28.829170227050781 ], [ -113.177803039550781, 28.783330917358398 ], [ -113.121902465820312, 28.498050689697266 ], [ -113.041900634765625, 28.444440841674805 ], [ -112.86810302734375, 28.435550689697266 ], [ -112.8739013671875, 28.281110763549805 ], [ -112.790000915527344, 28.197769165039062 ], [ -112.778602600097656, 28.029720306396484 ], [ -112.723098754882812, 28.007499694824219 ], [ -112.75360107421875, 27.840269088745117 ], [ -112.572799682617188, 27.630550384521484 ], [ -112.464401245117188, 27.60028076171875 ], [ -112.344497680664062, 27.540000915527344 ], [ -112.224502563476562, 27.20166015625 ], [ -111.955299377441406, 27.101940155029297 ], [ -112.029197692871094, 27.019439697265625 ], [ -111.962501525878906, 26.898609161376953 ], [ -111.903602600097656, 26.848049163818359 ], [ -111.894699096679688, 26.772769927978516 ], [ -111.917800903320312, 26.745000839233398 ], [ -111.76190185546875, 26.56389045715332 ], [ -111.730300903320312, 26.552780151367188 ], [ -111.688102722167969, 26.590829849243164 ], [ -111.827003479003906, 26.749160766601562 ], [ -111.868896484375, 26.878610610961914 ], [ -111.842201232910156, 26.903049468994141 ], [ -111.564498901367188, 26.72722053527832 ], [ -111.556999206542969, 26.565000534057617 ], [ -111.44219970703125, 26.51361083984375 ], [ -111.478897094726562, 26.437770843505859 ], [ -111.44219970703125, 26.369440078735352 ], [ -111.394699096679688, 26.331670761108398 ], [ -111.354698181152344, 26.145549774169922 ], [ -111.319503784179688, 26.095830917358398 ], [ -111.36199951171875, 25.958330154418945 ], [ -111.168899536132812, 25.581110000610352 ], [ -111.022003173828125, 25.529159545898438 ], [ -111.019401550292969, 25.419160842895508 ], [ -110.831901550292969, 25.068050384521484 ], [ -110.768302917480469, 25.041379928588867 ], [ -110.672500610351562, 24.839160919189453 ], [ -110.675300598144531, 24.767770767211914 ], [ -110.729698181152344, 24.662769317626953 ], [ -110.709197998046875, 24.494440078735352 ], [ -110.635597229003906, 24.305549621582031 ], [ -110.402801513671875, 24.203880310058594 ], [ -110.308601379394531, 24.191940307617188 ], [ -110.339996337890625, 24.159999847412109 ], [ -110.384201049804688, 24.189159393310547 ], [ -110.398597717285156, 24.176109313964844 ], [ -110.37640380859375, 24.122489929199219 ], [ -110.326400756835938, 24.124160766601562 ], [ -110.269401550292969, 24.189159393310547 ], [ -110.300003051757812, 24.334440231323242 ], [ -110.238899230957031, 24.356109619140625 ], [ -110.103897094726562, 24.219160079956055 ], [ -110.010597229003906, 24.171390533447266 ], [ -109.962196350097656, 24.047489166259766 ], [ -109.920303344726562, 24.022499084472656 ], [ -109.828903198242188, 24.057220458984375 ], [ -109.794403076171875, 24.021379470825195 ], [ -109.824203491210938, 23.941940307617188 ], [ -109.787200927734375, 23.874439239501953 ], [ -109.700599670410156, 23.80194091796875 ], [ -109.694198608398438, 23.679719924926758 ], [ -109.678596496582031, 23.653329849243164 ], [ -109.478302001953125, 23.575550079345703 ], [ -109.401901245117188, 23.403049468994141 ], [ -109.43499755859375, 23.232780456542969 ], [ -109.512802124023438, 23.129440307617188 ], [ -109.665603637695312, 23.053890228271484 ], [ -109.826400756835938, 22.909719467163086 ], [ -109.925796508789062, 22.865829467773438 ], [ -110.004997253417969, 22.886100769042969 ], [ -110.080596923828125, 22.986660003662109 ], [ -110.166099548339844, 23.313610076904297 ], [ -110.359703063964844, 23.598049163818359 ], [ -110.625801086425781, 23.725830078125 ], [ -110.993301391601562, 24.067209243774414 ], [ -111.302200317382812, 24.248050689697266 ], [ -111.546401977539062, 24.427490234375 ], [ -111.63330078125, 24.506940841674805 ], [ -111.675796508789062, 24.588890075683594 ], [ -111.797897338867188, 24.548379898071289 ], [ -111.827003479003906, 24.642490386962891 ], [ -111.974998474121094, 24.790550231933594 ], [ -112.01080322265625, 24.756380081176758 ], [ -112.037002563476562, 24.851659774780273 ], [ -112.074203491210938, 24.74860954284668 ], [ -112.101402282714844, 24.807500839233398 ], [ -112.108901977539062, 24.937770843505859 ], [ -112.078598022460938, 24.956380844116211 ], [ -112.096099853515625, 25.025829315185547 ], [ -112.134498596191406, 24.973329544067383 ], [ -112.148902893066406, 24.901100158691406 ], [ -112.170303344726562, 24.954170227050781 ], [ -112.124198913574219, 25.05388069152832 ], [ -112.128097534179688, 25.167499542236328 ], [ -112.068099975585938, 25.272220611572266 ], [ -112.100303649902344, 25.731109619140625 ], [ -112.228302001953125, 26.014720916748047 ], [ -112.309196472167969, 26.093610763549805 ], [ -112.337501525878906, 26.079719543457031 ], [ -112.375602722167969, 26.250829696655273 ], [ -112.423896789550781, 26.289709091186523 ], [ -112.536399841308594, 26.293609619140625 ], [ -112.537002563476562, 26.325830459594727 ], [ -112.670799255371094, 26.329170227050781 ], [ -113.103302001953125, 26.645000457763672 ], [ -113.079696655273438, 26.68943977355957 ], [ -113.11669921875, 26.672220230102539 ], [ -113.229202270507812, 26.711389541625977 ], [ -113.231697082519531, 26.780550003051758 ], [ -113.128097534179688, 26.880550384521484 ], [ -113.128303527832031, 26.958890914916992 ], [ -113.17449951171875, 26.973609924316406 ], [ -113.246101379394531, 26.746110916137695 ], [ -113.44580078125, 26.821659088134766 ], [ -113.481399536132812, 26.816099166870117 ], [ -113.532798767089844, 26.745830535888672 ], [ -113.597503662109375, 26.736940383911133 ], [ -113.835601806640625, 26.974159240722656 ], [ -113.908302307128906, 27.00054931640625 ], [ -113.989997863769531, 26.979160308837891 ], [ -114.12249755859375, 27.120830535888672 ], [ -114.222503662109375, 27.163610458374023 ], [ -114.399200439453125, 27.180830001831055 ], [ -114.478599548339844, 27.242219924926758 ], [ -114.507797241210938, 27.405279159545898 ], [ -114.668601989746094, 27.510280609130859 ], [ -114.732200622558594, 27.530550003051758 ], [ -114.86309814453125, 27.688610076904297 ], [ -114.99749755859375, 27.716659545898438 ], [ -115.059700012207031, 27.831100463867188 ], [ -115.048103332519531, 27.862220764160156 ], [ -114.530799865722656, 27.768890380859375 ], [ -114.479400634765625, 27.777219772338867 ], [ -114.354202270507812, 27.878610610961914 ], [ -114.317497253417969, 27.760280609130859 ], [ -114.19110107421875, 27.698610305786133 ], [ -113.992500305175781, 27.697500228881836 ], [ -113.970596313476562, 27.724720001220703 ], [ -114.07440185546875, 27.757499694824219 ], [ -114.154998779296875, 27.715269088745117 ], [ -114.306999206542969, 27.855270385742188 ], [ -114.290802001953125, 27.937490463256836 ], [ -114.157203674316406, 28.049440383911133 ], [ -114.122802734375, 28.096389770507812 ], [ -114.11199951171875, 28.178329467773438 ], [ -114.18170166015625, 28.249439239501953 ], [ -114.05889892578125, 28.511379241943359 ], [ -114.162002563476562, 28.671659469604492 ], [ -114.331901550292969, 28.754999160766602 ], [ -114.405296325683594, 28.885829925537109 ], [ -114.490798950195312, 28.938610076904297 ], [ -114.541099548339844, 28.929159164428711 ], [ -114.716697692871094, 29.142780303955078 ], [ -114.950302124023438, 29.37748908996582 ], [ -115.193702697753906, 29.430879592895508 ], [ -115.268600463867188, 29.512500762939453 ], [ -115.526100158691406, 29.628330230712891 ], [ -115.693901062011719, 29.768329620361328 ], [ -115.694503784179688, 29.866939544677734 ], [ -115.73919677734375, 29.942209243774414 ], [ -115.808296203613281, 29.954439163208008 ], [ -115.792503356933594, 30.213329315185547 ], [ -115.839202880859375, 30.354719161987305 ], [ -115.86810302734375, 30.384439468383789 ], [ -115.968101501464844, 30.398050308227539 ], [ -115.92919921875, 30.445550918579102 ], [ -115.980598449707031, 30.496669769287109 ], [ -115.98809814453125, 30.377220153808594 ], [ -116.007003784179688, 30.379989624023438 ], [ -116.041702270507812, 30.458330154418945 ], [ -116.041702270507812, 30.741100311279297 ], [ -116.057197570800781, 30.80194091796875 ], [ -116.319999694824219, 30.966110229492188 ], [ -116.307197570800781, 31.144720077514648 ], [ -116.513397216796875, 31.442499160766602 ], [ -116.677497863769531, 31.555269241333008 ], [ -116.635597229003906, 31.651939392089844 ], [ -116.695602416992188, 31.729719161987305 ], [ -116.640296936035156, 31.730829238891602 ], [ -116.610000610351562, 31.759719848632812 ], [ -116.598602294921875, 31.830549240112305 ], [ -116.848899841308594, 31.996110916137695 ], [ -116.909698486328125, 32.228321075439453 ], [ -117.010299682617188, 32.279430389404297 ], [ -117.122200012207031, 32.455829620361328 ], [ -117.12359619140625, 32.536788940429688 ] ] ] ] } },
{ "type": "Feature", "properties": { }, "geometry": { "type": "Polygon", "coordinates": [ [ [ -85.736656188964844, 13.828610420227051 ], [ -85.732772827148438, 13.957779884338379 ], [ -85.524169921875, 14.055279731750488 ], [ -85.31500244140625, 14.281109809875488 ], [ -85.179168701171875, 14.315279960632324 ], [ -85.155838012695312, 14.340270042419434 ], [ -85.175827026367188, 14.444999694824219 ], [ -85.115280151367188, 14.566670417785645 ], [ -85.086669921875, 14.543330192565918 ], [ -85.032783508300781, 14.573610305786133 ], [ -85.025833129882812, 14.700550079345703 ], [ -84.818618774414062, 14.827779769897461 ], [ -84.682220458984375, 14.685549736022949 ], [ -84.44915771484375, 14.627779960632324 ], [ -84.3255615234375, 14.673609733581543 ], [ -84.275283813476562, 14.664999961853027 ], [ -84.267776489257812, 14.744720458984375 ], [ -84.237213134765625, 14.763330459594727 ], [ -84.196662902832031, 14.71638011932373 ], [ -84.10333251953125, 14.728879928588867 ], [ -84.118057250976562, 14.784159660339355 ], [ -83.932502746582031, 14.752499580383301 ], [ -83.92138671875, 14.799440383911133 ], [ -83.843887329101562, 14.784999847412109 ], [ -83.718887329101562, 14.868330001831055 ], [ -83.531112670898438, 14.94972038269043 ], [ -83.5069580078125, 15.01278018951416 ], [ -83.417503356933594, 14.991109848022461 ], [ -83.390838623046875, 15.024720191955566 ], [ -83.130867004394531, 14.993289947509766 ], [ -83.292251586914062, 14.834280014038086 ], [ -83.305557250976562, 14.903889656066895 ], [ -83.335281372070312, 14.91139030456543 ], [ -83.411956787109375, 14.808609962463379 ], [ -83.3477783203125, 14.76471996307373 ], [ -83.301963806152344, 14.780280113220215 ], [ -83.188056945800781, 14.353329658508301 ], [ -83.203056335449219, 14.274169921875 ], [ -83.335563659667969, 14.067219734191895 ], [ -83.428070068359375, 13.964170455932617 ], [ -83.4969482421875, 13.695280075073242 ], [ -83.565292358398438, 13.262499809265137 ], [ -83.520278930664062, 12.970000267028809 ], [ -83.539169311523438, 12.592220306396484 ], [ -83.477226257324219, 12.44888973236084 ], [ -83.486679077148438, 12.397219657897949 ], [ -83.610000610351562, 12.369720458984375 ], [ -83.633346557617188, 12.381110191345215 ], [ -83.5977783203125, 12.418889999389648 ], [ -83.628890991210938, 12.570830345153809 ], [ -83.57861328125, 12.562219619750977 ], [ -83.558059692382812, 12.610830307006836 ], [ -83.538070678710938, 12.784999847412109 ], [ -83.591667175292969, 12.818610191345215 ], [ -83.642227172851562, 12.800829887390137 ], [ -83.629997253417969, 12.603610038757324 ], [ -83.7569580078125, 12.546110153198242 ], [ -83.777236938476562, 12.480279922485352 ], [ -83.734176635742188, 12.479999542236328 ], [ -83.718902587890625, 12.333609580993652 ], [ -83.625, 12.357500076293945 ], [ -83.614730834960938, 12.337220191955566 ], [ -83.662513732910156, 12.256660461425781 ], [ -83.679168701171875, 11.993610382080078 ], [ -83.7227783203125, 12.068050384521484 ], [ -83.694168090820312, 12.116390228271484 ], [ -83.7227783203125, 12.170829772949219 ], [ -83.77667236328125, 12.17805004119873 ], [ -83.773353576660156, 12.149999618530273 ], [ -83.733062744140625, 12.158329963684082 ], [ -83.7086181640625, 12.12444019317627 ], [ -83.7327880859375, 12.065279960632324 ], [ -83.801963806152344, 12.055549621582031 ], [ -83.753890991210938, 11.997500419616699 ], [ -83.795013427734375, 11.90054988861084 ], [ -83.831680297851562, 11.874719619750977 ], [ -83.774169921875, 11.800829887390137 ], [ -83.73834228515625, 11.801389694213867 ], [ -83.733062744140625, 11.86028003692627 ], [ -83.698898315429688, 11.846389770507812 ], [ -83.668327331542969, 11.598609924316406 ], [ -83.757232666015625, 11.556389808654785 ], [ -83.870010375976562, 11.342780113220215 ], [ -83.807510375976562, 11.071390151977539 ], [ -83.712509155273438, 10.924160003662109 ], [ -83.645339965820312, 10.924260139465332 ], [ -83.677223205566406, 10.78888988494873 ], [ -83.9244384765625, 10.709719657897949 ], [ -83.982223510742188, 10.756110191345215 ], [ -84.197769165039062, 10.785829544067383 ], [ -84.224716186523438, 10.878049850463867 ], [ -84.321670532226562, 10.92665958404541 ], [ -84.355560302734375, 10.993330001831055 ], [ -84.444442749023438, 10.959440231323242 ], [ -84.6744384765625, 11.078049659729004 ], [ -84.902786254882812, 10.940830230712891 ], [ -85.61444091796875, 11.21360969543457 ], [ -85.711349487304688, 11.084280014038086 ], [ -85.783889770507812, 11.110549926757812 ], [ -85.928337097167969, 11.306389808654785 ], [ -86.31500244140625, 11.600830078125 ], [ -86.4969482421875, 11.759440422058105 ], [ -86.7630615234375, 12.173049926757812 ], [ -86.843612670898438, 12.245280265808105 ], [ -87.049728393554688, 12.379440307617188 ], [ -87.489181518554688, 12.767499923706055 ], [ -87.690292358398438, 12.907770156860352 ], [ -87.658622741699219, 12.98721981048584 ], [ -87.578338623046875, 13.083609580993652 ], [ -87.424453735351562, 12.919719696044922 ], [ -87.353057861328125, 12.92527961730957 ], [ -87.300140380859375, 12.987409591674805 ], [ -87.063606262207031, 13.000280380249023 ], [ -86.952499389648438, 13.041669845581055 ], [ -86.90972900390625, 13.241109848022461 ], [ -86.827789306640625, 13.296669960021973 ], [ -86.743057250976562, 13.260829925537109 ], [ -86.696380615234375, 13.294719696044922 ], [ -86.696662902832031, 13.356659889221191 ], [ -86.732772827148438, 13.376660346984863 ], [ -86.732772827148438, 13.522500038146973 ], [ -86.761123657226562, 13.752779960632324 ], [ -86.530563354492188, 13.792499542236328 ], [ -86.354171752929688, 13.758049964904785 ], [ -86.31304931640625, 13.770830154418945 ], [ -86.175827026367188, 13.970829963684082 ], [ -86.088333129882812, 14.044440269470215 ], [ -86.015838623046875, 14.065830230712891 ], [ -86.022506713867188, 14.003049850463867 ], [ -85.909156799316406, 13.906940460205078 ], [ -85.8538818359375, 13.914159774780273 ], [ -85.800827026367188, 13.839159965515137 ], [ -85.736656188964844, 13.828610420227051 ] ] ] } },
{ "type": "Feature", "properties": { }, "geometry": { "type": "MultiPolygon", "coordinates": [ [ [ [ -81.630569458007812, 7.317777156829834 ], [ -81.827789306640625, 7.416943073272705 ], [ -81.884170532226562, 7.511108875274658 ], [ -81.738479614257812, 7.639948844909668 ], [ -81.6702880859375, 7.526666164398193 ], [ -81.692497253417969, 7.415554046630859 ], [ -81.636123657226562, 7.383886814117432 ], [ -81.589736938476562, 7.334443092346191 ], [ -81.630569458007812, 7.317777156829834 ] ] ], [ [ [ -82.833213806152344, 9.498186111450195 ], [ -82.875320434570312, 9.556333541870117 ], [ -82.843338012695312, 9.608329772949219 ], [ -82.615547180175781, 9.489716529846191 ], [ -82.565193176269531, 9.569786071777344 ], [ -82.376953125, 9.411108016967773 ], [ -82.340011596679688, 9.423885345458984 ], [ -82.382232666015625, 9.339441299438477 ], [ -82.341667175292969, 9.297496795654297 ], [ -82.392501831054688, 9.268886566162109 ], [ -82.339736938476562, 9.197219848632812 ], [ -82.24945068359375, 9.178607940673828 ], [ -82.17279052734375, 9.194440841674805 ], [ -82.17083740234375, 9.148885726928711 ], [ -82.245292663574219, 9.170276641845703 ], [ -82.275283813476562, 9.106109619140625 ], [ -82.239730834960938, 9.083053588867188 ], [ -82.258621215820312, 9.010553359985352 ], [ -82.057510375976562, 8.931386947631836 ], [ -81.8497314453125, 8.954166412353516 ], [ -81.788070678710938, 8.925832748413086 ], [ -81.767227172851562, 8.959999084472656 ], [ -81.773063659667969, 8.994441986083984 ], [ -81.932510375976562, 9.121664047241211 ], [ -81.861953735351562, 9.133886337280273 ], [ -81.82000732421875, 9.119997024536133 ], [ -81.82000732421875, 9.053886413574219 ], [ -81.715560913085938, 9.020830154418945 ], [ -81.566963195800781, 8.83721923828125 ], [ -81.428337097167969, 8.785275459289551 ], [ -81.156402587890625, 8.787776947021484 ], [ -80.805282592773438, 8.903886795043945 ], [ -80.644996643066406, 9.036385536193848 ], [ -80.408340454101562, 9.132776260375977 ], [ -80.148353576660156, 9.196941375732422 ], [ -80.03839111328125, 9.274642944335938 ], [ -79.968063354492188, 9.353052139282227 ], [ -79.943336486816406, 9.35749626159668 ], [ -79.940567016601562, 9.30305290222168 ], [ -79.698623657226562, 9.48249626159668 ], [ -79.605293273925781, 9.597775459289551 ], [ -79.533340454101562, 9.620277404785156 ], [ -79.471122741699219, 9.567777633666992 ], [ -78.979446411132812, 9.53360652923584 ], [ -79.063339233398438, 9.498331069946289 ], [ -79.059173583984375, 9.43166446685791 ], [ -78.478897094726562, 9.406944274902344 ], [ -78.268623352050781, 9.296108245849609 ], [ -78.027236938476562, 9.220830917358398 ], [ -77.865570068359375, 9.059719085693359 ], [ -77.865837097167969, 9.104997634887695 ], [ -77.734733581542969, 8.927776336669922 ], [ -77.625, 8.823331832885742 ], [ -77.531951904296875, 8.760274887084961 ], [ -77.531402587890625, 8.703332901000977 ], [ -77.445846557617188, 8.660829544067383 ], [ -77.366127014160156, 8.676170349121094 ], [ -77.478607177734375, 8.479717254638672 ], [ -77.420272827148438, 8.470550537109375 ], [ -77.373893737792969, 8.396385192871094 ], [ -77.3638916015625, 8.286941528320312 ], [ -77.221656799316406, 8.102218627929688 ], [ -77.14666748046875, 7.945830821990967 ], [ -77.291946411132812, 7.90777587890625 ], [ -77.371932983398438, 7.786109924316406 ], [ -77.32501220703125, 7.720831871032715 ], [ -77.573898315429688, 7.525276184082031 ], [ -77.606376647949219, 7.549441814422607 ], [ -77.662216186523438, 7.677774906158447 ], [ -77.735282897949219, 7.724164962768555 ], [ -77.754997253417969, 7.70999813079834 ], [ -77.758621215820312, 7.625553131103516 ], [ -77.720550537109375, 7.548054218292236 ], [ -77.745002746582031, 7.487497806549072 ], [ -77.811111450195312, 7.47999906539917 ], [ -77.889129638671875, 7.22772216796875 ], [ -78.008903503417969, 7.331110000610352 ], [ -78.078338623046875, 7.434720993041992 ], [ -78.172233581542969, 7.509998798370361 ], [ -78.235000610351562, 7.646110057830811 ], [ -78.2872314453125, 7.683610916137695 ], [ -78.275009155273438, 7.73527717590332 ], [ -78.400848388671875, 7.944165229797363 ], [ -78.433059692382812, 8.05194091796875 ], [ -78.413070678710938, 8.097775459289551 ], [ -78.331947326660156, 8.058609008789062 ], [ -78.259170532226562, 8.100275039672852 ], [ -78.235000610351562, 8.155830383300781 ], [ -78.271392822265625, 8.277496337890625 ], [ -78.212509155273438, 8.264442443847656 ], [ -78.143890380859375, 8.401664733886719 ], [ -77.985000610351562, 8.232219696044922 ], [ -77.861679077148438, 8.209718704223633 ], [ -77.829421997070312, 8.1658935546875 ], [ -77.738449096679688, 8.128934860229492 ], [ -77.820892333984375, 8.177265167236328 ], [ -77.86279296875, 8.229440689086914 ], [ -78.033073425292969, 8.313331604003906 ], [ -78.091667175292969, 8.517219543457031 ], [ -78.110572814941406, 8.483053207397461 ], [ -78.089736938476562, 8.41444206237793 ], [ -78.152236938476562, 8.469997406005859 ], [ -78.218902587890625, 8.379718780517578 ], [ -78.253616333007812, 8.392221450805664 ], [ -78.204452514648438, 8.484441757202148 ], [ -78.2227783203125, 8.538054466247559 ], [ -78.259170532226562, 8.450551986694336 ], [ -78.390007019042969, 8.435831069946289 ], [ -78.359733581542969, 8.397775650024414 ], [ -78.408889770507812, 8.34388542175293 ], [ -78.529167175292969, 8.569440841674805 ], [ -78.503616333007812, 8.623607635498047 ], [ -78.608612060546875, 8.664164543151855 ], [ -78.614463806152344, 8.770275115966797 ], [ -78.65167236328125, 8.699441909790039 ], [ -78.797233581542969, 8.852775573730469 ], [ -78.817230224609375, 8.803886413574219 ], [ -78.851387023925781, 8.826387405395508 ], [ -78.897506713867188, 8.906944274902344 ], [ -79.073623657226562, 8.977497100830078 ], [ -79.111679077148438, 9.083885192871094 ], [ -79.11279296875, 8.991943359375 ], [ -79.3739013671875, 9.013884544372559 ], [ -79.519180297851562, 8.96333122253418 ], [ -79.535186767578125, 8.930646896362305 ], [ -79.603622436523438, 8.88499641418457 ], [ -79.727226257324219, 8.840274810791016 ], [ -79.759170532226562, 8.792497634887695 ], [ -79.7489013671875, 8.685552597045898 ], [ -79.830001831054688, 8.632497787475586 ], [ -79.745010375976562, 8.592220306396484 ], [ -80.154167175292969, 8.33277702331543 ], [ -80.36334228515625, 8.288887023925781 ], [ -80.468902587890625, 8.218330383300781 ], [ -80.481666564941406, 8.0816650390625 ], [ -80.328903198242188, 7.955276012420654 ], [ -80.289169311523438, 7.873054981231689 ], [ -80.118057250976562, 7.706943035125732 ], [ -79.991119384765625, 7.521666049957275 ], [ -80.000289916992188, 7.468609809875488 ], [ -80.1622314453125, 7.41222095489502 ], [ -80.305007934570312, 7.406942844390869 ], [ -80.358062744140625, 7.381943225860596 ], [ -80.3961181640625, 7.285275936126709 ], [ -80.470291137695312, 7.251110076904297 ], [ -80.873611450195312, 7.205832004547119 ], [ -80.917236328125, 7.286942958831787 ], [ -80.885009765625, 7.338610172271729 ], [ -80.945556640625, 7.547499179840088 ], [ -81.0452880859375, 7.663887023925781 ], [ -81.001953125, 7.683887958526611 ], [ -81.084457397460938, 7.764998912811279 ], [ -81.0513916015625, 7.891109943389893 ], [ -81.093612670898438, 7.8399977684021 ], [ -81.204727172851562, 7.868887901306152 ], [ -81.171112060546875, 7.798054218292236 ], [ -81.177230834960938, 7.746109962463379 ], [ -81.241386413574219, 7.715554237365723 ], [ -81.193336486816406, 7.657220840454102 ], [ -81.212509155273438, 7.611942768096924 ], [ -81.528633117675781, 7.707499027252197 ], [ -81.490570068359375, 7.744164943695068 ], [ -81.538070678710938, 7.755832195281982 ], [ -81.587783813476562, 7.792221069335938 ], [ -81.593902587890625, 7.881109237670898 ], [ -81.644447326660156, 7.959443092346191 ], [ -81.743057250976562, 8.188608169555664 ], [ -81.77056884765625, 8.123886108398438 ], [ -82.075843811035156, 8.212774276733398 ], [ -82.123611450195312, 8.202219009399414 ], [ -82.212226867675781, 8.212497711181641 ], [ -82.210281372070312, 8.326384544372559 ], [ -82.249732971191406, 8.292219161987305 ], [ -82.337783813476562, 8.329721450805664 ], [ -82.406112670898438, 8.284719467163086 ], [ -82.432510375976562, 8.350554466247559 ], [ -82.454177856445312, 8.279720306396484 ], [ -82.714736938476562, 8.317218780517578 ], [ -82.860000610351562, 8.244441986083984 ], [ -82.864181518554688, 8.022775650024414 ], [ -82.89666748046875, 8.026708602905273 ], [ -82.930831909179688, 8.254718780517578 ], [ -83.03167724609375, 8.336940765380859 ], [ -82.83056640625, 8.473884582519531 ], [ -82.826950073242188, 8.575830459594727 ], [ -82.915283203125, 8.745273590087891 ], [ -82.885009765625, 8.784721374511719 ], [ -82.748611450195312, 8.887218475341797 ], [ -82.719161987304688, 8.940273284912109 ], [ -82.855827331542969, 9.045829772949219 ], [ -82.929466247558594, 9.062070846557617 ], [ -82.934722900390625, 9.471663475036621 ], [ -82.833213806152344, 9.498186111450195 ] ] ] ] } }
]
}
